KUIPER-00607            
1 69290U 26118Z   26162.60459617  .00014470  00000+0  39958-3 0  9991
2 69290  51.8676  80.2681 0006194 139.4616 220.6833 15.37289682  3127
KUIPER-00608            
1 69291U 26118AA  26162.48363034  .00022958  00000+0  65910-3 0  9992
2 69291  51.8606  80.9523 0009431 154.7209 205.4240 15.35711638  3108
KUIPER-00610            
1 69292U 26118AB  26162.59753995  .00033662  00000+0  88585-3 0  9991
2 69292  51.8716  80.2168 0002900 117.1182 243.0101 15.38242289  3126
KUIPER-00613            
1 69293U 26118AC  26162.48713901  .00026742  00000+0  77988-3 0  9999
2 69293  51.8632  80.9758 0010314 164.9205 195.2090 15.35120610  3103
KUIPER-00618            
1 69294U 26118AD  26162.59457334  .00015699  00000+0  41646-3 0  9998
2 69294  51.8715  80.1970 0001874  78.2924 281.8273 15.38477789  3122
KUIPER-00620            
1 69295U 26118AE  26162.59686600  .00013200  00000+0  35408-3 0  9994
2 69295  51.8711  80.2140 0003039 105.0527 255.0796 15.38286388  3128
STARLINK-37501          
1 69296U 26119A   26162.57606472  .00098992  00000+0  53185-3 0  9996
2 69296  97.2835 188.0905 0001444  67.9431 292.1990 15.79965524  3156
STARLINK-37496          
1 69297U 26119B   26162.57654061  .00219396  00000+0  11591-2 0  9991
2 69297  97.2836 188.0904 0001489  70.8184 289.3245 15.80011456  3153
STARLINK-37519          
1 69298U 26119C   26162.57198087  .00179801  00000+0  91673-3 0  9999
2 69298  97.2841 188.0964 0001889  54.7466 305.3979 15.80898454  3158
STARLINK-37455          
1 69299U 26119D   26162.57484526  .00169219  00000+0  89976-3 0  9991
2 69299  97.2838 188.0926 0001809 127.3479 232.7954 15.80002726  3151
STARLINK-37456          
1 69300U 26119E   26162.57118359  .00209650  00000+0  10634-2 0  9990
2 69300  97.2838 188.0974 0001469  50.3896 309.7502 15.80934430  3157
STARLINK-37630          
1 69301U 26119F   26162.58335648 -.01152812  00000+0 -92933-2 0  9996
2 69301  97.2840 188.0998 0001057  90.3940 317.8646 15.73579658  3141
STARLINK-37804          
1 69302U 26119G   26162.58335648 -.02006607  00000+0 -15834-1 0  9992
2 69302  97.2841 188.1000 0001768  75.4268 334.8935 15.74811349  3141
STARLINK-37730          
1 69303U 26119H   26162.56895697  .00183511  00000+0  93622-3 0  9995
2 69303  97.2839 188.1002 0001319  61.6382 298.5020 15.80875799  3155
STARLINK-37731          
1 69304U 26119J   26162.58335648 -.02577182  00000+0 -20819-1 0  9994
2 69304  97.2843 188.1051 0001396  80.5996 342.0188 15.74007053  3143
STARLINK-37734          
1 69305U 26119K   26162.56790707  .00177545  00000+0  90642-3 0  9992
2 69305  97.2838 188.1018 0001177  65.4507 294.6884 15.80876036  3156
STARLINK-37701          
1 69306U 26119L   26162.56763505  .00172573  00000+0  88126-3 0  9999
2 69306  97.2839 188.1013 0000939 106.3365 253.8007 15.80883856  3157
STARLINK-37732          
1 69307U 26119M   26162.56721854  .00190750  00000+0  97164-3 0  9990
2 69307  97.2839 188.1029 0001332  87.1600 272.9821 15.80891092  3158
STARLINK-37689          
1 69308U 26119N   26162.58335648 -.02379462  00000+0 -20011-1 0  9993
2 69308  97.2844 188.1172 0001271  72.8988   7.3634 15.73383236  3145
STARLINK-37619          
1 69309U 26119P   26162.56550966  .00209784  00000+0  10659-2 0  9997
2 69309  97.2837 188.1048 0001275  71.6869 288.4538 15.80896781  3157
STARLINK-37794          
1 69310U 26119Q   26162.56327833  .00187520  00000+0  95594-3 0  9999
2 69310  97.2838 188.1080 0001082  80.3453 279.7937 15.80882106  3150
STARLINK-37795          
1 69311U 26119R   26162.58335648 -.02438663  00000+0 -20564-1 0  9999
2 69311  97.2841 188.1263 0001449  59.2366  38.8179 15.73417312  3149
STARLINK-37790          
1 69312U 26119S   26162.62527471  .00150859  00000+0  77305-3 0  9993
2 69312  97.2840 188.1763 0001443  86.7077 273.4356 15.80864982  3165
STARLINK-37676          
1 69313U 26119T   26162.58335648 -.00030158  00000+0 -15700-3 0  9994
2 69313  97.2842 188.1370 0001227 105.7534  27.5001 15.80850806  3145
STARLINK-37617          
1 69314U 26119U   26162.58335648  .00001668  00000+0  94374-5 0  9993
2 69314  97.2841 188.1386 0001422  98.0006  40.2180 15.80834662  3149
STARLINK-37627          
1 69315U 26119V   26162.58335648  .00006886  00000+0  36630-4 0  9991
2 69315  97.2842 188.1404 0001366 106.4573  33.5478 15.80834645  3148
STARLINK-37738          
1 69316U 26119W   26162.62429614  .00244736  00000+0  12354-2 0  9997
2 69316  97.2835 188.1775 0001532  78.5890 281.5550 15.80948313  3164
STARLINK-37799          
1 69317U 26119X   26162.58335648  .00017380  00000+0  91201-4 0  9999
2 69317  97.2842 188.1386 0001461  99.6008  36.3678 15.80837807  3091
STARLINK-37802          
1 69318U 26119Y   26162.58335648 -.00007982  00000+0 -40912-4 0  9992
2 69318  97.2841 188.1437 0001431  95.4906  51.9792 15.80844484  3141
STARLINK-37803          
1 69319U 26119Z   26162.58335648 -.00013654  00000+0 -70570-4 0  9999
2 69319  97.2840 188.1447 0001285  97.8906  53.3164 15.80841957  3090
