OBJECT_NAME,OBJECT_ID,EPOCH,MEAN_MOTION,ECCENTRICITY,INCLINATION,RA_OF_ASC_NODE,ARG_OF_PERICENTER,MEAN_ANOMALY,EPHEMERIS_TYPE,CLASSIFICATION_TYPE,NORAD_CAT_ID,ELEMENT_SET_NO,REV_AT_EPOCH,BSTAR,MEAN_MOTION_DOT,MEAN_MOTION_DDOT
KUIPER-00607,2026-118Z,2026-06-11T14:30:37.109088,15.37289682,.00061943,51.8676,80.2681,139.4616,220.6833,0,U,69290,999,312,.39957842E-3,.1447E-3,0
KUIPER-00608,2026-118AA,2026-06-11T11:36:25.661376,15.35711638,.00094318,51.8606,80.9523,154.7209,205.4240,0,U,69291,999,310,.65910366E-3,.22958E-3,0
KUIPER-00610,2026-118AB,2026-06-11T14:20:27.451680,15.38242289,.00029001,51.8716,80.2168,117.1182,243.0101,0,U,69292,999,312,.88585487E-3,.33662E-3,0
KUIPER-00613,2026-118AC,2026-06-11T11:41:28.810464,15.35120610,.00103148,51.8632,80.9758,164.9205,195.2090,0,U,69293,999,310,.77988349E-3,.26742E-3,0
KUIPER-00618,2026-118AD,2026-06-11T14:16:11.136576,15.38477789,.00018749,51.8715,80.1970,78.2924,281.8273,0,U,69294,999,312,.41646169E-3,.15699E-3,0
KUIPER-00620,2026-118AE,2026-06-11T14:19:29.222400,15.38286388,.0003039,51.8711,80.2140,105.0527,255.0796,0,U,69295,999,312,.35408419E-3,.132E-3,0
STARLINK-37501,2026-119A,2026-06-11T13:49:31.991808,15.79965524,.00014443,97.2835,188.0905,67.9431,292.1990,0,U,69296,999,315,.53185375E-3,.98992E-3,0
STARLINK-37496,2026-119B,2026-06-11T13:50:13.108704,15.80011456,.00014897,97.2836,188.0904,70.8184,289.3245,0,U,69297,999,315,.11591417E-2,.219396E-2,0
STARLINK-37519,2026-119C,2026-06-11T13:43:39.147168,15.80898454,.00018897,97.2841,188.0964,54.7466,305.3979,0,U,69298,999,315,.91673037E-3,.179801E-2,0
STARLINK-37455,2026-119D,2026-06-11T13:47:46.630464,15.80002726,.00018092,97.2838,188.0926,127.3479,232.7954,0,U,69299,999,315,.89975893E-3,.169219E-2,0
STARLINK-37456,2026-119E,2026-06-11T13:42:30.262176,15.80934430,.00014693,97.2838,188.0974,50.3896,309.7502,0,U,69300,999,315,.10634008E-2,.20965E-2,0
STARLINK-37630,2026-119F,2026-06-11T14:00:01.999872,15.73579658,.00010571,97.2840,188.0998,90.3940,317.8646,0,U,69301,999,314,-.92932606E-2,-.1152812E-1,0
STARLINK-37804,2026-119G,2026-06-11T14:00:01.999872,15.74811349,.00017686,97.2841,188.1000,75.4268,334.8935,0,U,69302,999,314,-.15833677E-1,-.2006607E-1,0
STARLINK-37730,2026-119H,2026-06-11T13:39:17.882208,15.80875799,.00013199,97.2839,188.1002,61.6382,298.5020,0,U,69303,999,315,.93622116E-3,.183511E-2,0
STARLINK-37731,2026-119J,2026-06-11T14:00:01.999872,15.74007053,.00013968,97.2843,188.1051,80.5996,342.0188,0,U,69304,999,314,-.20819024E-1,-.2577182E-1,0
STARLINK-37734,2026-119K,2026-06-11T13:37:47.170848,15.80876036,.00011779,97.2838,188.1018,65.4507,294.6884,0,U,69305,999,315,.90642385E-3,.177545E-2,0
STARLINK-37701,2026-119L,2026-06-11T13:37:23.668320,15.80883856,.00009399,97.2839,188.1013,106.3365,253.8007,0,U,69306,999,315,.88125807E-3,.172573E-2,0
STARLINK-37732,2026-119M,2026-06-11T13:36:47.681856,15.80891092,.00013328,97.2839,188.1029,87.1600,272.9821,0,U,69307,999,315,.97163509E-3,.19075E-2,0
STARLINK-37689,2026-119N,2026-06-11T14:00:01.999872,15.73383236,.00012717,97.2844,188.1172,72.8988,7.3634,0,U,69308,999,314,-.20010517E-1,-.2379462E-1,0
STARLINK-37619,2026-119P,2026-06-11T13:34:20.034624,15.80896781,.00012752,97.2837,188.1048,71.6869,288.4538,0,U,69309,999,315,.10658969E-2,.209784E-2,0
STARLINK-37794,2026-119Q,2026-06-11T13:31:07.247712,15.80882106,.00010826,97.2838,188.1080,80.3453,279.7937,0,U,69310,999,315,.95594402E-3,.18752E-2,0
STARLINK-37795,2026-119R,2026-06-11T14:00:01.999872,15.73417312,.00014498,97.2841,188.1263,59.2366,38.8179,0,U,69311,999,314,-.20563607E-1,-.2438663E-1,0
STARLINK-37790,2026-119S,2026-06-11T15:00:23.734944,15.80864982,.00014439,97.2840,188.1763,86.7077,273.4356,0,U,69312,999,316,.77305158E-3,.150859E-2,0
STARLINK-37676,2026-119T,2026-06-11T14:00:01.999872,15.80850806,.00012271,97.2842,188.1370,105.7534,27.5001,0,U,69313,999,314,-.15699522E-3,-.30158E-3,0
STARLINK-37617,2026-119U,2026-06-11T14:00:01.999872,15.80834662,.00014223,97.2841,188.1386,98.0006,40.2180,0,U,69314,999,314,.94374E-5,.1668E-4,0
STARLINK-37627,2026-119V,2026-06-11T14:00:01.999872,15.80834645,.00013667,97.2842,188.1404,106.4573,33.5478,0,U,69315,999,314,.36629925E-4,.6886E-4,0
STARLINK-37738,2026-119W,2026-06-11T14:58:59.186496,15.80948313,.00015328,97.2835,188.1775,78.5890,281.5550,0,U,69316,999,316,.12354395E-2,.244736E-2,0
STARLINK-37799,2026-119X,2026-06-11T14:00:01.999872,15.80837807,.00014618,97.2842,188.1386,99.6008,36.3678,0,U,69317,999,309,.91200587E-4,.1738E-3,0
STARLINK-37802,2026-119Y,2026-06-11T14:00:01.999872,15.80844484,.0001431,97.2841,188.1437,95.4906,51.9792,0,U,69318,999,314,-.40912346E-4,-.7982E-4,0
STARLINK-37803,2026-119Z,2026-06-11T14:00:01.999872,15.80841957,.00012857,97.2840,188.1447,97.8906,53.3164,0,U,69319,999,309,-.70570091E-4,-.13654E-3,0
